0 SL-3 R/B
1 09482U 76102B   13282.48408417  .00000146  00000-0  78262-4 0  5403
2 09482 081.2739 331.5548 0056489 342.4296 102.7450 14.07395616898350
0 SL-3 R/B
1 09482U 76102B   13283.84178395  .00000159  00000-0  86239-4 0  5411
2 09482 081.2738 330.2433 0056393 338.6263 141.6754 14.07396283898544
0 SL-3 R/B
1 09482U 76102B   13286.17913454  .00000134  00000-0  71295-4 0  5434
2 09482 081.2732 327.9854 0056128 332.0947 104.1004 14.07397253898877
0 SL-3 R/B
1 09482U 76102B   13287.53369388  .00000126  00000-0  66816-4 0  5441
2 09482 081.2729 326.6768 0055979 328.2648 127.1618 14.07397824899063
0 SL-3 R/B
1 09482U 76102B   13288.81832264  .00000092  00000-0  46768-4 0  5458
2 09482 081.2726 325.4356 0055870 324.6283 155.9160 14.07398367899249
0 SL-3 R/B
1 09482U 76102B   13290.16012016  .00000049  00000-0  21731-4 0  5460
2 09482 081.2725 324.1391 0055785 320.8169 114.3389 14.07398856899435
0 SL-3 R/B
1 09482U 76102B   13291.51726877  .00000057  00000-0  26491-4 0  5475
2 09482 081.2724 322.8276 0055652 316.9507 150.5567 14.07399373899622
0 SL-3 R/B
1 09482U 76102B   13292.52377964  .00000058  00000-0  27286-4 0  5481
2 09482 081.2724 321.8550 0055537 314.0819 210.2128 14.07399627899767
0 SL-3 R/B
1 09482U 76102B   13293.79470826  .00000047  00000-0  20320-4 0  5493
2 09482 081.2724 320.6271 0055447 310.4632 169.5831 14.07399763899945
0 SL-3 R/B
1 09482U 76102B   13295.13641140  .00000048  00000-0  21314-4 0  5509
2 09482 081.2723 319.3308 0055365 306.6209 127.5674 14.07400008900134
0 SL-3 R/B
1 09482U 76102B   13296.20219259  .00000038  00000-0  15257-4 0  5519
2 09482 081.2723 318.3012 0055290 303.5860 127.5259 14.07400066900280
